[
    {
        "Altitude(m)": 710865.7337422298,
        "Argument of Periapsis(deg)": 0.007973084830638947,
        "Eccentricity": 0.0,
        "Inclination(deg)": 45.0,
        "Latitude(deg)": -27.818715670653955,
        "Longitude(deg)": -122.1888511030847,
        "Mean Anomaly(deg)": 318.98235165323666,
        "RAAN(deg)": 9.992473640979256,
        "Satellite Name": "Constellation 1 63",
        "Satellite Number": 63,
        "Semi-Major Axis(m)": 7083131.272910544,
        "Time(s)": 133
    },
    {
        "Altitude(m)": 710851.8910545794,
        "Argument of Periapsis(deg)": 0.008033032836884352,
        "Eccentricity": 0.0,
        "Inclination(deg)": 45.0,
        "Latitude(deg)": -27.782055152764755,
        "Longitude(deg)": -122.13835554363598,
        "Mean Anomaly(deg)": 319.04305279348654,
        "RAAN(deg)": 9.992417051813689,
        "Satellite Name": "Constellation 1 63",
        "Satellite Number": 63,
        "Semi-Major Axis(m)": 7083131.272910544,
        "Time(s)": 134
    },
    {
        "Altitude(m)": 710838.04725825,
        "Argument of Periapsis(deg)": 0.008092980843129758,
        "Eccentricity": 0.0,
        "Inclination(deg)": 45.0,
        "Latitude(deg)": -27.745372804422946,
        "Longitude(deg)": -122.0878964560679,
        "Mean Anomaly(deg)": 319.1037539337364,
        "RAAN(deg)": 9.992360462648119,
        "Satellite Name": "Constellation 1 63",
        "Satellite Number": 63,
        "Semi-Major Axis(m)": 7083131.272910544,
        "Time(s)": 135
    },
    {
        "Altitude(m)": 710824.2024011682,
        "Argument of Periapsis(deg)": 0.008152928849375162,
        "Eccentricity": 0.0,
        "Inclination(deg)": 45.0,
        "Latitude(deg)": -27.708668673084585,
        "Longitude(deg)": -122.03747378079713,
        "Mean Anomaly(deg)": 319.16445507398635,
        "RAAN(deg)": 9.992303873482548,
        "Satellite Name": "Constellation 1 63",
        "Satellite Number": 63,
        "Semi-Major Axis(m)": 7083131.272910544,
        "Time(s)": 136
    },
    {
        "Altitude(m)": 710810.3565312595,
        "Argument of Periapsis(deg)": 0.008212876855620568,
        "Eccentricity": 0.0,
        "Inclination(deg)": 45.0,
        "Latitude(deg)": -27.671942806137434,
        "Longitude(deg)": -121.9870874582176,
        "Mean Anomaly(deg)": 319.2251562142362,
        "RAAN(deg)": 9.99224728431698,
        "Satellite Name": "Constellation 1 63",
        "Satellite Number": 63,
        "Semi-Major Axis(m)": 7083131.272910544,
        "Time(s)": 137
    },
    {
        "Altitude(m)": 710796.5096964459,
        "Argument of Periapsis(deg)": 0.008272824861865974,
        "Eccentricity": 0.0,
        "Inclination(deg)": 45.0,
        "Latitude(deg)": -27.6351952509011,
        "Longitude(deg)": -121.93673742870159,
        "Mean Anomaly(deg)": 319.2858573544861,
        "RAAN(deg)": 9.99219069515141,
        "Satellite Name": "Constellation 1 63",
        "Satellite Number": 63,
        "Semi-Major Axis(m)": 7083131.272910544,
        "Time(s)": 138
    },
    {
        "Altitude(m)": 710782.6619446309,
        "Argument of Periapsis(deg)": 0.00833277286811138,
        "Eccentricity": 0.0,
        "Inclination(deg)": 45.0,
        "Latitude(deg)": -27.598426054626966,
        "Longitude(deg)": -121.88642363259943,
        "Mean Anomaly(deg)": 319.346558494736,
        "RAAN(deg)": 9.99213410598584,
        "Satellite Name": "Constellation 1 63",
        "Satellite Number": 63,
        "Semi-Major Axis(m)": 7083131.272910544,
        "Time(s)": 139
    },
    {
        "Altitude(m)": 710768.8133237204,
        "Argument of Periapsis(deg)": 0.008392720874356788,
        "Eccentricity": 0.0,
        "Inclination(deg)": 45.0,
        "Latitude(deg)": -27.561635264498236,
        "Longitude(deg)": -121.83614601024027,
        "Mean Anomaly(deg)": 319.4072596349859,
        "RAAN(deg)": 9.99207751682027,
        "Satellite Name": "Constellation 1 63",
        "Satellite Number": 63,
        "Semi-Major Axis(m)": 7083131.272910544,
        "Time(s)": 140
    },
    {
        "Altitude(m)": 710754.9638816058,
        "Argument of Periapsis(deg)": 0.008452668880602192,
        "Eccentricity": 0.0,
        "Inclination(deg)": 45.0,
        "Latitude(deg)": -27.524822927630076,
        "Longitude(deg)": -121.78590467002999,
        "Mean Anomaly(deg)": 319.46796077523584,
        "RAAN(deg)": 9.992020927654702,
        "Satellite Name": "Constellation 1 63",
        "Satellite Number": 63,
        "Semi-Major Axis(m)": 7083131.272910544,
        "Time(s)": 141
    },
    {
        "Altitude(m)": 710741.1136661757,
        "Argument of Periapsis(deg)": 0.008512616886847598,
        "Eccentricity": 0.0,
        "Inclination(deg)": 45.0,
        "Latitude(deg)": -27.487989091070215,
        "Longitude(deg)": -121.73569921606268,
        "Mean Anomaly(deg)": 319.5286619154857,
        "RAAN(deg)": 9.991964338489131,
        "Satellite Name": "Constellation 1 63",
        "Satellite Number": 63,
        "Semi-Major Axis(m)": 7083131.272910544,
        "Time(s)": 142
    },
    {
        "Altitude(m)": 710727.2627253053,
        "Argument of Periapsis(deg)": 0.008572564893093004,
        "Eccentricity": 0.0,
        "Inclination(deg)": 45.0,
        "Latitude(deg)": -27.451133801797944,
        "Longitude(deg)": -121.68552975670411,
        "Mean Anomaly(deg)": 319.5893630557356,
        "RAAN(deg)": 9.99190774932356,
        "Satellite Name": "Constellation 1 63",
        "Satellite Number": 63,
        "Semi-Major Axis(m)": 7083131.272910544,
        "Time(s)": 143
    },
    {
        "Altitude(m)": 710713.4111068668,
        "Argument of Periapsis(deg)": 0.008632512899338408,
        "Eccentricity": 0.0,
        "Inclination(deg)": 45.0,
        "Latitude(deg)": -27.41425710672477,
        "Longitude(deg)": -121.63539623220335,
        "Mean Anomaly(deg)": 319.6500641959855,
        "RAAN(deg)": 9.991851160157994,
        "Satellite Name": "Constellation 1 63",
        "Satellite Number": 63,
        "Semi-Major Axis(m)": 7083131.272910544,
        "Time(s)": 144
    },
    {
        "Altitude(m)": 710699.5588587127,
        "Argument of Periapsis(deg)": 0.008692460905583814,
        "Eccentricity": 0.0,
        "Inclination(deg)": 45.0,
        "Latitude(deg)": -27.37735905269487,
        "Longitude(deg)": -121.58529858279114,
        "Mean Anomaly(deg)": 319.71076533623545,
        "RAAN(deg)": 9.991794570992424,
        "Satellite Name": "Constellation 1 63",
        "Satellite Number": 63,
        "Semi-Major Axis(m)": 7083131.272910544,
        "Time(s)": 145
    },
    {
        "Altitude(m)": 710685.7060286953,
        "Argument of Periapsis(deg)": 0.00875240891182922,
        "Eccentricity": 0.0,
        "Inclination(deg)": 45.0,
        "Latitude(deg)": -27.340439686484554,
        "Longitude(deg)": -121.5352367486795,
        "Mean Anomaly(deg)": 319.77146647648533,
        "RAAN(deg)": 9.991737981826853,
        "Satellite Name": "Constellation 1 63",
        "Satellite Number": 63,
        "Semi-Major Axis(m)": 7083131.272910544,
        "Time(s)": 146
    },
    {
        "Altitude(m)": 710671.8526646601,
        "Argument of Periapsis(deg)": 0.008812356918074627,
        "Eccentricity": 0.0,
        "Inclination(deg)": 45.0,
        "Latitude(deg)": -27.3034990548025,
        "Longitude(deg)": -121.4852106700624,
        "Mean Anomaly(deg)": 319.8321676167352,
        "RAAN(deg)": 9.991681392661285,
        "Satellite Name": "Constellation 1 63",
        "Satellite Number": 63,
        "Semi-Major Axis(m)": 7083131.272910544,
        "Time(s)": 147
    },
    {
        "Altitude(m)": 710657.9988144373,
        "Argument of Periapsis(deg)": 0.008872304924320031,
        "Eccentricity": 0.0,
        "Inclination(deg)": 45.0,
        "Latitude(deg)": -27.266537204289797,
        "Longitude(deg)": -121.43522045521358,
        "Mean Anomaly(deg)": 319.89286875698514,
        "RAAN(deg)": 9.991624803495714,
        "Satellite Name": "Constellation 1 63",
        "Satellite Number": 63,
        "Semi-Major Axis(m)": 7083131.272910544,
        "Time(s)": 148
    },
    {
        "Altitude(m)": 710644.1445258477,
        "Argument of Periapsis(deg)": 0.008932252930565437,
        "Eccentricity": 0.0,
        "Inclination(deg)": 45.0,
        "Latitude(deg)": -27.229554181520836,
        "Longitude(deg)": -121.3852657080984,
        "Mean Anomaly(deg)": 319.953569897235,
        "RAAN(deg)": 9.991568214330146,
        "Satellite Name": "Constellation 1 63",
        "Satellite Number": 63,
        "Semi-Major Axis(m)": 7083131.272910544,
        "Time(s)": 149
    },
    {
        "Altitude(m)": 710630.2898467035,
        "Argument of Periapsis(deg)": 0.008992200936810843,
        "Eccentricity": 0.0,
        "Inclination(deg)": 45.0,
        "Latitude(deg)": -27.192550033001964,
        "Longitude(deg)": -121.33534653695678,
        "Mean Anomaly(deg)": 320.0142710374849,
        "RAAN(deg)": 9.991511625164575,
        "Satellite Name": "Constellation 1 63",
        "Satellite Number": 63,
        "Semi-Major Axis(m)": 7083131.272910544,
        "Time(s)": 150
    },
    {
        "Altitude(m)": 710616.4348248063,
        "Argument of Periapsis(deg)": 0.009052148943056249,
        "Eccentricity": 0.0,
        "Inclination(deg)": 45.0,
        "Latitude(deg)": -27.155524805172377,
        "Longitude(deg)": -121.28546288191521,
        "Mean Anomaly(deg)": 320.07497217773476,
        "RAAN(deg)": 9.991455035999007,
        "Satellite Name": "Constellation 1 63",
        "Satellite Number": 63,
        "Semi-Major Axis(m)": 7083131.272910544,
        "Time(s)": 151
    }
]